{
  "type": "FeatureCollection",
  "features": [
    {
      "type": "Feature",
      "properties": {
        "norad_id": 34681,
        "name": "COSMOS 2251 DEB",
        "group": "cosmos-2251-debris",
        "lat": 6.770659158822546,
        "lon": -75.57452944613046,
        "alt_km": 604.8573080758579,
        "timestamp": "2025-12-16T17:51:11.327250+00:00",
        "meta_object_name": "COSMOS 2251 DEB",
        "meta_object_id": "1993-036YB",
        "meta_epoch": "2025-12-15T22:42:32.609664",
        "meta_mean_motion": 14.83296882,
        "meta_eccentricity": 0.00256273,
        "meta_inclination": 74.0627,
        "meta_ra_of_asc_node": 284.0574,
        "meta_arg_of_pericenter": 340.5285,
        "meta_mean_anomaly": 88.8087,
        "meta_ephemeris_type": 0,
        "meta_classification_type": "U",
        "meta_norad_cat_id": 34681,
        "meta_element_set_no": 999,
        "meta_rev_at_epoch": 89318,
        "meta_bstar": 0.001012184,
        "meta_mean_motion_dot": 8.308e-05,
        "meta_mean_motion_ddot": 0,
        "tle_line1": "1 34681U 93036YB  25349.94621076  .00008308  00000+0  10122-2 0  9997",
        "tle_line2": "2 34681  74.0627 284.0574 0025627 340.5285  88.8087 14.83296882893188"
      },
      "geometry": {
        "type": "Point",
        "coordinates": [
          -75.57452944613046,
          6.770659158822546
        ]
      }
    },
    {
      "type": "Feature",
      "properties": {
        "norad_id": 34682,
        "name": "COSMOS 2251 DEB",
        "group": "cosmos-2251-debris",
        "lat": 47.3369511651848,
        "lon": -122.72802272794824,
        "alt_km": 689.3411593941355,
        "timestamp": "2025-12-16T17:51:11.327261+00:00",
        "meta_object_name": "COSMOS 2251 DEB",
        "meta_object_id": "1993-036YC",
        "meta_epoch": "2025-12-15T00:54:50.214816",
        "meta_mean_motion": 14.58915163,
        "meta_eccentricity": 0.00182372,
        "meta_inclination": 74.0399,
        "meta_ra_of_asc_node": 78.6105,
        "meta_arg_of_pericenter": 211.429,
        "meta_mean_anomaly": 323.4422,
        "meta_ephemeris_type": 0,
        "meta_classification_type": "U",
        "meta_norad_cat_id": 34682,
        "meta_element_set_no": 999,
        "meta_rev_at_epoch": 88719,
        "meta_bstar": 0.00053862217,
        "meta_mean_motion_dot": 2.501e-05,
        "meta_mean_motion_ddot": 0,
        "tle_line1": "1 34682U 93036YC  25349.03808119  .00002501  00000+0  53862-3 0  9991",
        "tle_line2": "2 34682  74.0399  78.6105 0018237 211.4290 323.4422 14.58915163887190"
      },
      "geometry": {
        "type": "Point",
        "coordinates": [
          -122.72802272794824,
          47.3369511651848
        ]
      }
    },
    {
      "type": "Feature",
      "properties": {
        "norad_id": 34683,
        "name": "COSMOS 2251 DEB",
        "group": "cosmos-2251-debris",
        "lat": 3.3111377302738196,
        "lon": 85.51843036587255,
        "alt_km": 693.0002118599014,
        "timestamp": "2025-12-16T17:51:11.327271+00:00",
        "meta_object_name": "COSMOS 2251 DEB",
        "meta_object_id": "1993-036YD",
        "meta_epoch": "2025-12-15T17:48:24.087744",
        "meta_mean_motion": 14.6453125,
        "meta_eccentricity": 0.00180338,
        "meta_inclination": 74.0291,
        "meta_ra_of_asc_node": 86.4948,
        "meta_arg_of_pericenter": 201.5061,
        "meta_mean_anomaly": 281.6435,
        "meta_ephemeris_type": 0,
        "meta_classification_type": "U",
        "meta_norad_cat_id": 34683,
        "meta_element_set_no": 999,
        "meta_rev_at_epoch": 88392,
        "meta_bstar": 0.00085127501,
        "meta_mean_motion_dot": 4.497e-05,
        "meta_mean_motion_ddot": 0,
        "tle_line1": "1 34683U 93036YD  25349.74194546  .00004497  00000+0  85128-3 0  9998",
        "tle_line2": "2 34683  74.0291  86.4948 0018033 201.5061 281.6435 14.64531250883928"
      },
      "geometry": {
        "type": "Point",
        "coordinates": [
          85.51843036587255,
          3.3111377302738196
        ]
      }
    },
    {
      "type": "Feature",
      "properties": {
        "norad_id": 34685,
        "name": "COSMOS 2251 DEB",
        "group": "cosmos-2251-debris",
        "lat": 50.592523190605,
        "lon": 161.56929554092312,
        "alt_km": 706.0069907998177,
        "timestamp": "2025-12-16T17:51:11.327281+00:00",
        "meta_object_name": "COSMOS 2251 DEB",
        "meta_object_id": "1993-036YF",
        "meta_epoch": "2025-12-15T20:44:32.178912",
        "meta_mean_motion": 14.57537762,
        "meta_eccentricity": 0.00142599,
        "meta_inclination": 74.0286,
        "meta_ra_of_asc_node": 142.8414,
        "meta_arg_of_pericenter": 247.0593,
        "meta_mean_anomaly": 232.8559,
        "meta_ephemeris_type": 0,
        "meta_classification_type": "U",
        "meta_norad_cat_id": 34685,
        "meta_element_set_no": 999,
        "meta_rev_at_epoch": 88577,
        "meta_bstar": 0.00074771961,
        "meta_mean_motion_dot": 3.378e-05,
        "meta_mean_motion_ddot": 0,
        "tle_line1": "1 34685U 93036YF  25349.86426133  .00003378  00000+0  74772-3 0  9993",
        "tle_line2": "2 34685  74.0286 142.8414 0014259 247.0593 232.8559 14.57537762885776"
      },
      "geometry": {
        "type": "Point",
        "coordinates": [
          161.56929554092312,
          50.592523190605
        ]
      }
    },
    {
      "type": "Feature",
      "properties": {
        "norad_id": 34689,
        "name": "COSMOS 2251 DEB",
        "group": "cosmos-2251-debris",
        "lat": -28.126245572961224,
        "lon": 45.19910584497255,
        "alt_km": 837.9313614575385,
        "timestamp": "2025-12-16T17:51:11.327292+00:00",
        "meta_object_name": "COSMOS 2251 DEB",
        "meta_object_id": "1993-036YK",
        "meta_epoch": "2025-12-15T15:20:16.539648",
        "meta_mean_motion": 14.04491905,
        "meta_eccentricity": 0.02275051,
        "meta_inclination": 74.0901,
        "meta_ra_of_asc_node": 218.3502,
        "meta_arg_of_pericenter": 286.6099,
        "meta_mean_anomaly": 101.262,
        "meta_ephemeris_type": 0,
        "meta_classification_type": "U",
        "meta_norad_cat_id": 34689,
        "meta_element_set_no": 999,
        "meta_rev_at_epoch": 84382,
        "meta_bstar": 0.0020174062,
        "meta_mean_motion_dot": 4.031e-05,
        "meta_mean_motion_ddot": 0,
        "tle_line1": "1 34689U 93036YK  25349.63908032  .00004031  00000+0  20174-2 0  9998",
        "tle_line2": "2 34689  74.0901 218.3502 0227505 286.6099 101.2620 14.04491905843829"
      },
      "geometry": {
        "type": "Point",
        "coordinates": [
          45.19910584497255,
          -28.126245572961224
        ]
      }
    },
    {
      "type": "Feature",
      "properties": {
        "norad_id": 34721,
        "name": "COSMOS 2251 DEB",
        "group": "cosmos-2251-debris",
        "lat": 47.12757255004476,
        "lon": 121.2057654501514,
        "alt_km": 996.3933455959341,
        "timestamp": "2025-12-16T17:51:11.327302+00:00",
        "meta_object_name": "COSMOS 2251 DEB",
        "meta_object_id": "1993-036YP",
        "meta_epoch": "2025-12-15T16:18:27.707904",
        "meta_mean_motion": 13.96867133,
        "meta_eccentricity": 0.02234707,
        "meta_inclination": 73.9233,
        "meta_ra_of_asc_node": 321.1486,
        "meta_arg_of_pericenter": 259.5791,
        "meta_mean_anomaly": 282.2184,
        "meta_ephemeris_type": 0,
        "meta_classification_type": "U",
        "meta_norad_cat_id": 34721,
        "meta_element_set_no": 999,
        "meta_rev_at_epoch": 85190,
        "meta_bstar": 0.00096298616,
        "meta_mean_motion_dot": 1.628e-05,
        "meta_mean_motion_ddot": 0,
        "tle_line1": "1 34721U 93036YP  25349.67948736  .00001628  00000+0  96299-3 0  9995",
        "tle_line2": "2 34721  73.9233 321.1486 0223470 259.5791 282.2184 13.96867133851904"
      },
      "geometry": {
        "type": "Point",
        "coordinates": [
          121.2057654501514,
          47.12757255004476
        ]
      }
    },
    {
      "type": "Feature",
      "properties": {
        "norad_id": 34722,
        "name": "COSMOS 2251 DEB",
        "group": "cosmos-2251-debris",
        "lat": -32.51330099232524,
        "lon": 159.55365601005235,
        "alt_km": 764.9059054039126,
        "timestamp": "2025-12-16T17:51:11.327312+00:00",
        "meta_object_name": "COSMOS 2251 DEB",
        "meta_object_id": "1993-036YQ",
        "meta_epoch": "2025-12-15T17:53:03.686784",
        "meta_mean_motion": 14.11944912,
        "meta_eccentricity": 0.01669879,
        "meta_inclination": 73.873,
        "meta_ra_of_asc_node": 330.7069,
        "meta_arg_of_pericenter": 255.7481,
        "meta_mean_anomaly": 284.9666,
        "meta_ephemeris_type": 0,
        "meta_classification_type": "U",
        "meta_norad_cat_id": 34722,
        "meta_element_set_no": 999,
        "meta_rev_at_epoch": 86287,
        "meta_bstar": 0.00067290308,
        "meta_mean_motion_dot": 1.376e-05,
        "meta_mean_motion_ddot": 0,
        "tle_line1": "1 34722U 93036YQ  25349.74518156  .00001376  00000+0  67290-3 0  9992",
        "tle_line2": "2 34722  73.8730 330.7069 0166987 255.7481 284.9666 14.11944912862873"
      },
      "geometry": {
        "type": "Point",
        "coordinates": [
          159.55365601005235,
          -32.51330099232524
        ]
      }
    }
  ]
}